OBJECT_NAME,OBJECT_ID,EPOCH,MEAN_MOTION,ECCENTRICITY,INCLINATION,RA_OF_ASC_NODE,ARG_OF_PERICENTER,MEAN_ANOMALY,EPHEMERIS_TYPE,CLASSIFICATION_TYPE,NORAD_CAT_ID,ELEMENT_SET_NO,REV_AT_EPOCH,BSTAR,MEAN_MOTION_DOT,MEAN_MOTION_DDOT
LEMUR-1,2014-033AL,2026-06-05T08:51:40.451616,14.85195828,.0049647,97.7870,306.4384,116.3277,244.3049,0,U,40044,999,64371,.31517985E-3,.2706E-4,0
LEMUR-2-GREENBERG,2017-042N,2026-06-05T10:54:08.078688,15.30947383,.00096248,97.3818,337.1368,53.8754,306.3377,0,U,42837,999,48659,.60013612E-3,.17915E-3,0
LEMUR-2-ANDIS,2017-042P,2026-06-05T10:40:32.181888,15.34356463,.000917,97.3680,337.2719,53.7295,306.4794,0,U,42838,999,48665,.68643534E-3,.22827E-3,0
LEMUR-2-MONSON,2017-042Q,2026-06-05T10:30:23.818752,15.27686603,.00072988,97.4080,337.1100,46.0662,314.1179,0,U,42839,999,48637,.59569362E-3,.16073E-3,0
LEMUR-2-FURIAUS,2017-042R,2026-06-05T19:58:17.568192,15.29868130,.0008564,97.3772,335.4941,103.6224,256.5971,0,U,42840,999,48647,.83027888E-3,.24013E-3,0
LEMUR-2-PETERG,2017-042S,2026-06-05T11:41:08.847744,15.33398658,.00041911,97.3993,341.5028,39.2276,320.9270,0,U,42841,999,48664,.8009304E-3,.25837E-3,0
LEMUR-2-DEMBITZ,2017-042T,2026-06-05T11:02:26.850336,15.29927304,.00076539,97.3826,338.1388,66.5488,293.6557,0,U,42842,999,48655,.59697852E-3,.17257E-3,0
LEMUR-2-ZACHARY,2017-042W,2026-06-05T12:04:33.469824,15.49216981,.00036673,97.3611,347.8997,73.1159,287.0494,0,U,42845,999,48739,.82941831E-3,.45332E-3,0
LEMUR-2-AMANDA-SVANTE,2021-034B,2026-06-05T22:36:14.200128,15.33609946,.0000946,97.5761,234.9365,259.6521,100.4614,0,U,48269,999,27933,.13727E-2,.44733E-3,0
LEMUR-2-SPECIAL-K,2021-034F,2026-06-04T17:27:01.451232,15.60998083,.0002667,97.5656,241.7174,238.8592,121.2404,0,U,48273,999,27974,.15811E-2,.13455E-2,0
LEMUR-2-DEVERILL-M-T,2023-100F,2026-06-05T08:10:00.230880,15.39139085,.00073911,99.4476,191.6837,86.6907,273.5178,0,U,57391,999,15942,.61678387E-3,.23881E-3,0
LEMUR-2-BASS,2023-174D,2026-06-05T11:18:54.416160,15.42692487,.00067757,97.3843,241.0242,201.0261,159.0709,0,U,58259,999,14355,.40921982E-3,.17794E-3,0
LEMUR-2-JK0903EM1407,2023-174CJ,2026-06-04T05:50:17.937888,15.50993821,.0005884,97.3910,245.3579,155.2357,204.9178,0,U,58336,999,14372,.4905583E-3,.28456E-3,0
LEMUR-2-MJR092620,2023-174CN,2026-06-05T11:57:17.203392,15.44429217,.00068906,97.3971,246.3169,152.0728,208.0891,0,U,58340,999,14384,.42412443E-3,.19563E-3,0
LEMUR-2-VALHALLA,2024-022B,2026-06-05T19:55:36.071904,15.39318995,.00103904,97.4117,6.6882,147.4200,212.7689,0,U,58900,999,13052,.53716466E-3,.20944E-3,0
LEMUR-2-OBA-NI-JESU,2024-022D,2026-06-05T09:29:51.574848,16.03522774,.00044163,97.3760,20.6257,178.9245,181.2045,0,U,58902,999,13143,.12452428E-2,.770793E-2,.29383425E-3
LEMUR-2-CAEL,2024-022E,2026-06-05T09:28:42.526560,15.40570718,.00090158,97.4098,7.1635,132.5023,227.6986,0,U,58903,999,13052,.41195107E-3,.167E-3,0
LEMUR-2-JOHNNYTRUONG,2024-043BA,2026-06-05T16:02:31.078464,15.59585052,.00043721,97.5379,307.6665,211.8335,148.2658,0,U,59146,999,12624,.49112851E-3,.39077E-3,0
LEMUR-2-TOMATOKECHUP,2024-149D,2026-06-05T23:12:01.801728,15.35794505,.0000405,97.3796,238.9874,214.8468,145.2749,0,U,60471,999,10044,.42518E-3,.14737E-3,0
LEMUR-2-STELLA,2024-149BT,2026-06-04T04:10:32.423232,15.11514040,.0001851,97.6733,237.5749,101.9080,258.2357,0,U,60533,999,9853,.78866E-3,.13309E-3,0
LEMUR-2-AHMED-ASRAR,2024-149DN,2026-06-05T01:21:02.546208,15.12426387,.00026591,97.6998,240.9433,70.4526,289.6991,0,U,60576,999,9873,.88520212E-3,.15334E-3,0
LEMUR-2-SQUIRRELCOMM,2024-149DQ,2026-06-05T23:14:24.565632,15.07024404,.0006805,97.6705,237.9155,92.8973,267.3033,0,U,60578,999,9871,.6082E-3,.906E-4,0
LEMUR-2-SIERRINI,2024-149DR,2026-06-05T23:00:42.319296,15.10707546,.0004842,97.6841,239.5040,198.7308,161.3744,0,U,60579,999,9876,.95912E-3,.15851E-3,0
LEMUR-2-WILSON,2025-009CP,2026-06-05T10:48:06.852384,14.95116769,.00048882,97.7029,235.1214,82.8178,277.3598,0,U,62694,999,7560,.22191963E-3,.2377E-4,0
LEMUR-2-STAR-FOX,2025-009CR,2026-06-05T12:06:03.148704,15.02317388,.00026211,97.6940,238.1986,144.3761,215.7639,0,U,62696,999,7580,.6907597E-3,.9074E-4,0
LEMUR-2-ARIANNA,2025-009CU,2026-06-05T12:03:26.820000,15.02299720,.00028686,97.6877,237.9804,151.7234,208.4147,0,U,62699,999,7580,.71524925E-3,.9394E-4,0
